VELOX-CI                
1 41166U 15077A   23089.10173939  .00010610  00000+0  52299-3 0  9990
2 41166  14.9822 259.3067 0010416  58.7242 301.4098 15.14391623402622
KENT RIDGE 1            
1 41167U 15077B   23089.21736032  .00005192  00000+0  25887-3 0  9994
2 41167  14.9811 284.5226 0010413  12.3810 130.8097 15.11480464402523
ATHENOXAT 1             
1 41168U 15077C   23089.35566637  .00100522  00000+0  23057-2 0  9991
2 41168  14.9637 112.1309 0004561 305.7094 169.6805 15.40872997404075
TELEOS 1                
1 41169U 15077D   23088.77469907  .00014375  00000+0  66518-3 0  9999
2 41169  14.9827 244.7588 0009131  82.6747 277.4567 15.17181747402848
GALASSIA                
1 41170U 15077E   23089.20551933  .00053813  00000+0  16172-2 0  9991
2 41170  14.9870 112.1779 0006965 341.8179  18.1895 15.32515509403893
VELOX-II                
1 41171U 15077F   23089.43448145  .00033163  00000+0  12944-2 0  9996
2 41171  14.9894 202.5928 0007127 149.6228 210.4508 15.23847718403157
DAMPE                   
1 41173U 15078A   23089.93248075  .00002377  00000+0  97257-4 0  9999
2 41173  97.4022  81.8557 0011559 272.1882 171.4544 15.25267122405230
GSAT0209 (GALILEO 12)   
1 41174U 15079A   23089.11277805  .00000020  00000+0  00000+0 0  9992
2 41174  55.2429 133.5472 0004780 299.6911  60.3339  1.70474908 44740
GSAT0208 (GALILEO 11)   
1 41175U 15079B   23089.33232441  .00000021  00000+0  00000+0 0  9995
2 41175  55.2408 133.5392 0004205 297.7979  62.2328  1.70474870 45168
ORBCOMM FM114           
1 41179U 15081A   23089.81798995  .00001807  00000+0  44775-3 0  9990
2 41179  47.0012 140.6464 0002827 241.9736 118.0863 14.55620787386463
ORBCOMM FM110           
1 41182U 15081D   23089.86390399  .00001673  00000+0  41771-3 0  9999
2 41182  47.0009 139.8806 0000783  29.1093 330.9835 14.55588789386340
ORBCOMM FM118           
1 41183U 15081E   23089.84094703  .00001730  00000+0  43031-3 0  9993
2 41183  47.0030 140.2122 0000759  24.5350 335.5571 14.55629165386443
ORBCOMM FM112           
1 41184U 15081F   23089.27857446  .00001545  00000+0  38901-3 0  9996
2 41184  47.0000  51.6531 0002456 290.1326  69.9294 14.55557750387586
ORBCOMM FM113           
1 41185U 15081G   23089.32373285  .00001620  00000+0  40602-3 0  9992
2 41185  47.0022  51.6296 0002087 301.3410  58.7270 14.55545919387571
ORBCOMM FM115           
1 41186U 15081H   23089.67407073  .00001850  00000+0  42171-3 0  9992
2 41186  46.9995 279.3564 0001028 300.0648  60.0136 14.59504557389418
ORBCOMM FM108           
1 41187U 15081J   23089.89754771  .00001966  00000+0  48398-3 0  9992
2 41187  47.0061 320.0224 0002326 209.1195 150.9560 14.55615012388807
ORBCOMM FM117           
1 41188U 15081K   23089.86324480  .00001938  00000+0  47792-3 0  9996
2 41188  47.0022 319.2144 0003073 224.4888 135.5749 14.55573216388846
ORBCOMM FM116           
1 41189U 15081L   23089.91946498  .00001846  00000+0  45722-3 0  9991
2 41189  47.0030  48.7134 0002588 295.7165  64.3452 14.55564708387663
EXPRESS-AMU1            
1 41191U 15082A   23089.87130903  .00000149  00000+0  00000+0 0  9997
2 41191   0.0177 231.9264 0002918 120.7581 185.0832  1.00275765 26495
GAOFEN 4                
1 41194U 15083A   23089.86867611 -.00000342  00000+0  00000+0 0  9999
2 41194   0.0663 299.7250 0003161 287.5173  19.1455  1.00270580 26752
BELINTERSAT-1           
1 41238U 16001A   23089.80466161  .00000100  00000+0  00000+0 0  9999
2 41238   0.0044 306.9500 0000506 214.6615   7.4352  1.00272428 26462
JASON-3                 
1 41240U 16002A   23089.85870623 -.00000027  00000+0  14668-3 0  9998
2 41240  66.0422  54.2013 0008007 273.8907  86.1192 12.80927766336590
IRNSS-1E                
1 41241U 16003A   23089.89645455 -.00000281  00000+0  00000+0 0  9990
2 41241  30.6248  80.1869 0018680 188.0749 354.1731  1.00267262 26300
EUTELSAT 9B             
1 41310U 16005A   23089.86590483  .00000055  00000+0  00000+0 0  9994
2 41310   0.0589  67.3501 0003089 259.4462 181.8811  1.00272839 26342
NAVSTAR 76 (USA 266)    
1 41328U 16007A   23089.21010545  .00000004  00000+0  00000+0 0  9994
2 41328  54.9720 136.1294 0069732 233.5596 125.8630  2.00557442 52273
COSMOS 2514 [GLONASS-M] 
1 41330U 16008A   23089.25598190 -.00000090  00000+0  00000+0 0  9995
2 41330  65.5412 353.0274 0008061 216.8631 143.1161  2.13102801 55580
KMS 4                   
1 41332U 16009A   23089.81137634  .00145403  00000+0  13508-2 0  9999
2 41332  97.2068 171.2356 0008589 345.5221  14.5792 15.66927351400203
SENTINEL-3A             
1 41335U 16011A   23089.89175385  .00000320  00000+0  15037-3 0  9996
2 41335  98.6281 158.0739 0001008 101.4507 258.6787 14.26737602370610
HORYU-4                 
1 41340U 16012D   23089.05753938  .00012583  00000+0  82066-3 0  9997
2 41340  31.0053 331.8453 0011048 170.5047 189.5800 15.06641328390774
SES-9                   
1 41380U 16013A   23089.86867611 -.00000352  00000+0  00000+0 0  9991
2 41380   0.0206 272.5400 0001670 130.5961 205.8632  1.00271562 25664
EUTELSAT 65 WEST A      
1 41382U 16014A   23089.77944094 -.00000283  00000+0  00000+0 0  9998
2 41382   0.0578  10.2223 0002071 353.4221  39.6422  1.00274162 25769
IRNSS-1F                
1 41384U 16015A   23089.87061171  .00000154  00000+0  00000+0 0  9994
2 41384   2.6254 137.8944 0021614 193.6024 202.3907  1.00273312 25892
RESURS P3               
1 41386U 16016A   23089.87612509  .00039500  00000+0  40330-3 0  9995
2 41386  97.1744 176.2875 0012121 110.0021 250.2545 15.64876785394606
COSMOS 2515             
1 41394U 16020A   23089.87000413  .00002619  00000+0  21074-3 0  9999
2 41394  97.9269  55.7398 0029995 296.1952  63.6191 15.00559828383878
BEIDOU-2 IGSO-6         
1 41434U 16021A   23089.35535457 -.00000140  00000+0  00000+0 0  9999
2 41434  58.5229  49.8815 0048231 226.2975 135.2241  1.00269958 25707
E-ST@R-II               
1 41459U 16025D   23089.77213375  .00032184  00000+0  10499-2 0  9996
2 41459  98.1928 283.3859 0116658  11.5218 115.8692 15.25298996380925
AAUSAT 4                
1 41460U 16025E   23089.84474461  .00085890  00000+0  17898-2 0  9993
2 41460  98.1724 293.6193 0079992 332.5765  38.9464 15.41838128381645
MVL-300                 
1 41464U 16026A   23089.91582981  .00046115  00000+0  91805-3 0  9991
2 41464  97.0089 310.1311 0007834 201.3353 286.6772 15.46748592386997
AIST-2D (RS-48)         
1 41465U 16026B   23089.90557126  .00037326  00000+0  58161-3 0  9996
2 41465  97.0112 322.7552 0008828 155.0580 335.4063 15.53738548387795
IRNSS-1G                
1 41469U 16027A   23089.88996230 -.00000341  00000+0  00000+0 0  9994
2 41469   2.5295 139.9521 0006864 289.1905 208.7451  1.00271036 25405
JCSAT-2B                
1 41471U 16028A   23089.82314234 -.00000172  00000+0  00000+0 0  9992
2 41471   0.0027  95.9538 0001068 262.8462 279.4546  1.00271352 25344
YAOGAN-30               
1 41473U 16029A   23089.85801414  .00001705  00000+0  25310-3 0  9996
2 41473  98.0702 136.9868 0018749  47.5715 312.7046 14.76253105370407
GSAT0211 (GALILEO 14)   
1 41549U 16030A   23089.45284066  .00000017  00000+0  00000+0 0  9996
2 41549  55.6020 254.0162 0003474   7.3531 352.6174  1.70473850 42649
GSAT0210 (GALILEO 13)   
1 41550U 16030B   23089.15776867  .00000017  00000+0  00000+0 0  9990
2 41550  55.5956 254.0258 0001571 341.2986  18.6612  1.70473727 42632
THAICOM 8               
1 41552U 16031A   23089.87976403 -.00000128  00000+0  00000+0 0  9994
2 41552   0.0554  29.1528 0004942   6.6100 187.4602  1.00271645 24945
COSMOS 2516 [GLONASS-M] 
1 41554U 16032A   23089.37496599  .00000015  00000+0  00000+0 0  9999
2 41554  63.8797 231.5265 0014461 212.3385 147.5464  2.13106456 53192
ZIYUAN 3-2 (ZY 3-2)     
1 41556U 16033A   23089.92387369  .00014023  00000+0  63474-3 0  9999
2 41556  97.4972 163.2809 0001852  62.6638  52.2478 15.21004419379450
NUSAT-1 (FRESCO)        
1 41557U 16033B   23089.98002841  .00063924  00000+0  11311-2 0  9991
2 41557  97.3822 195.3453 0007194  72.0077  48.0202 15.50066388381470
NUSAT-2 (BATATA)        
1 41558U 16033C   23089.97992181  .00071047  00000+0  11574-2 0  9992
2 41558  97.4095 202.7920 0006258  61.5260  29.0748 15.52376086381793
COSMOS 2517 (GEO-IK 2)  
1 41579U 16034A   23086.23050964 -.00000042  00000+0  20421-5 0  9998
2 41579  99.2157 100.0180 0000868 116.9067 243.2178 13.85896070344468
INTELSAT 31 (IS-31)     
1 41581U 16035A   23089.38042047 -.00000157  00000+0  00000+0 0  9996
2 41581   0.0195 234.1678 0002025 340.6633  14.5467  1.00270681 24919
BEIDOU-2 G7             
1 41586U 16037A   23089.90973994 -.00000360  00000+0  00000+0 0  9991
2 41586   1.5125  65.0275 0009392 345.5037 215.5189  1.00275408 25011
ABS-2A (MONGOLSAT-1)    
1 41588U 16038A   23089.66392885 -.00000092  00000+0  00000+0 0  9993
2 41588   0.0095 175.7797 0002071 105.2540 220.5058  1.00273524 24936
EUTELSAT 117 WEST B     
1 41589U 16038B   23089.69748733 -.00000018  00000+0  00000+0 0  9992
2 41589   0.0228  41.3790 0000226 244.6093  35.9162  1.00270033 24898
BRISAT                  
1 41591U 16039A   23089.89414622 -.00000203  00000+0  00000+0 0  9991
2 41591   0.0189 219.1465 0002234 142.6595 298.5829  1.00272495 24831
ECHOSTAR 18             
1 41592U 16039B   23089.85195847 -.00000289  00000+0  00000+0 0  9997
2 41592   0.0184 176.1759 0001563 183.6824  73.4550  1.00271681 24847
CARTOSAT-2C             
1 41599U 16040A   23089.73462247  .00008037  00000+0  38279-3 0  9995
2 41599  97.4451 151.1549 0013524 257.7128 251.0534 15.19318810375397
SKYSAT-C1               
1 41601U 16040C   23089.74874554  .00029589  00000+0  71313-3 0  9999
2 41601  97.1190 162.7142 0001754 124.5228 235.6185 15.41194338378024
GHGSAT-D                
1 41602U 16040D   23089.69728667  .00027008  00000+0  83943-3 0  9993
2 41602  97.1669 131.1495 0007570 181.0948 179.0279 15.33283117376406
